ONEWEB-0588             
1 55153U 23004P   25069.04668799  .00000043  00000+0  76394-4 0  9998
2 55153  87.9056  67.7936 0001438  81.2204 278.9091 13.18684728108527
ONEWEB-0598             
1 55154U 23004Q   25069.50478490  .00000304  00000+0  82183-3 0  9999
2 55154  87.8827 113.5254 0002035  77.7563 282.3793 13.11413625105139
ONEWEB-0599             
1 55155U 23004R   25069.51053806  .00000141  00000+0  33067-3 0  9997
2 55155  87.9018  98.2341 0002112  88.9260 271.2113 13.17647742106424
ONEWEB-0614             
1 55156U 23004S   25069.49970245  .00000499  00000+0  13732-2 0  9992
2 55156  87.8829 113.5342 0001731 107.1917 252.9400 13.11414195105089
ONEWEB-0616             
1 55157U 23004T   25068.56555998  .00000030  00000+0  42954-4 0  9995
2 55157  87.9013  98.4188 0003075  95.8996 264.2486 13.17649285106513
ONEWEB-0617             
1 55158U 23004U   25068.64856872  .00000553  00000+0  15247-2 0  9993
2 55158  87.8824 113.6886 0001538  98.5152 261.6150 13.11417698104976
ONEWEB-0618             
1 55159U 23004V   25069.33712202  .00001081  00000+0  35791-3 0  9993
2 55159  86.9138 358.7272 0014682 134.5038 225.7363 14.37037488113335
ONEWEB-0619             
1 55160U 23004W   25069.12916270  .00000041  00000+0  72517-4 0  9996
2 55160  87.9014  98.2838 0002072 110.1729 249.9626 13.17646795106484
